STARLINK-2234           
1 48580U 21041AD  26068.38205786  .00002295  00000+0  89533-4 0  9993
2 48580  53.1607 102.4354 0001211  92.2307 267.8832 15.30219172265590
TRANSPORTER-10 OBJECT AD
1 59125U 24043AD  26068.86032889  .00011954  00000+0  36311-3 0  9997
2 59125  97.5470 207.3753 0008984 221.4908 138.5653 15.34189901112026
